FENGYUN 3D              
1 43010U 17072A   26191.61542516  .00000125  00000+0  80919-4 0  9992
2 43010  99.0139 166.4621 0001747  24.2459 335.8799 14.19744339448311
NOAA 20 (JPSS-1)        
1 43013U 17073A   26191.54375113  .00000008  00000+0  24649-4 0  9993
2 43013  98.7774 130.7993 0001201 128.9213 231.2071 14.19515883447788
GOES 17                 
1 43226U 18022A   26191.54915082 -.00000174  00000+0  00000+0 0  9994
2 43226   0.9939  85.3295 0000597  79.1020 232.2385  1.00270932 30654
SENTINEL-3B             
1 43437U 18039A   26190.42086302  .00000053  00000+0  40007-4 0  9997
2 43437  98.6239 257.6331 0001016 120.0757 240.0524 14.26741005427298
FENGYUN 2H              
1 43491U 18050A   26191.58256090 -.00000121  00000+0  00000+0 0  9992
2 43491   3.0876  78.8057 0002198 129.9085   8.7125  1.00267747 29677
METOP-C                 
1 43689U 18087A   26191.57738788  .00000045  00000+0  40388-4 0  9991
2 43689  98.6632 250.7521 0002233  99.5328 260.6102 14.21518262398159
GEO-KOMPSAT-2A          
1 43823U 18100A   26191.52100718 -.00000334  00000+0  00000+0 0  9992
2 43823   0.0255 128.1121 0001995 332.7281 143.4297  1.00272146 27866
METEOR-M2 2             
1 44387U 19038A   26191.56634627  .00000091  00000+0  59030-4 0  9995
2 44387  98.9159 179.1975 0001010  12.7323 347.3880 14.24372266364629
ARKTIKA-M 1             
1 47719U 21016A   26188.42887598 -.00000257  00000+0  00000+0 0  9997
2 47719  63.2524  54.6812 7295086 270.0380  14.5466  2.00614486 39194
FENGYUN 3E              
1 49008U 21062A   26191.59670164 -.00000203  00000+0 -74857-4 0  9990
2 49008  98.7503 194.7436 0002485  47.0199 313.1186 14.19905413259903
GOES 18                 
1 51850U 22021A   26191.52405676  .00000107  00000+0  00000+0 0  9996
2 51850   0.0186 203.2178 0000593 346.3182 150.5643  1.00272174  6827
NOAA 21 (JPSS-2)        
1 54234U 22150A   26191.57612384  .00000017  00000+0  28651-4 0  9996
2 54234  98.7061 129.9725 0002722 112.5324 247.6141 14.19540595189867
METEOSAT-12 (MTG-I1)    
1 54743U 22170C   26191.33308481  .00000002  00000+0  00000+0 0  9994
2 54743   0.7198  18.8197 0003827  83.1984 305.9022  1.00266807 13215
TIANMU-1 03             
1 55973U 23039A   26191.58561197  .00010398  00000+0  20108-3 0  9991
2 55973  97.5240   6.4835 0002973  38.6448 321.5014 15.47956015184459
TIANMU-1 04             
1 55974U 23039B   26191.56588920  .00010928  00000+0  20673-3 0  9999
2 55974  97.5174   5.6189 0003481  30.2093 329.9357 15.48576065184465
TIANMU-1 05             
1 55975U 23039C   26191.56752438  .00010560  00000+0  20472-3 0  9996
2 55975  97.5220   6.0711 0003372  58.1228 302.0350 15.47878431184435
TIANMU-1 06             
1 55976U 23039D   26191.63538888  .00010947  00000+0  20781-3 0  9998
2 55976  97.5226   6.8013 0003471  50.6851 309.4706 15.48475106184477
FENGYUN 3G              
1 56232U 23055A   26191.58934779  .00014941  00000+0  23596-3 0  9990
2 56232  49.9913 225.3462 0007155  35.2908 324.8532 15.53651035183647
METEOR-M2 3             
1 57166U 23091A   26191.63632350 -.00000018  00000+0  11015-4 0  9998
2 57166  98.6070 246.1334 0005149 100.5205 259.6555 14.24048703157858
TIANMU-1 07             
1 57399U 23101A   26191.58026488  .00003989  00000+0  13956-3 0  9995
2 57399  97.2585 241.7131 0004008  74.2945 285.8737 15.30080952165222
TIANMU-1 08             
1 57400U 23101B   26191.61224160  .00004121  00000+0  14407-3 0  9990
2 57400  97.2574 241.5116 0004999  58.4928 301.6801 15.30085392165220
TIANMU-1 09             
1 57401U 23101C   26191.59512324  .00004173  00000+0  14567-3 0  9994
2 57401  97.2532 240.8987 0004617  75.0036 285.1716 15.30124904165229
TIANMU-1 10             
1 57402U 23101D   26191.56319015  .00004212  00000+0  14712-3 0  9990
2 57402  97.2612 241.9420 0005989  66.5686 293.6185 15.30098176165216
FENGYUN 3F              
1 57490U 23111A   26191.58005755  .00000009  00000+0  24628-4 0  9991
2 57490  98.6827 261.1519 0001369  78.3951 281.7379 14.19942955152187
ARKTIKA-M 2             
1 58584U 23198A   26191.19028738  .00000186  00000+0  00000+0 0  9993
2 58584  63.2187 151.7920 6909076 267.3544  18.7501  2.00608562 18787
TIANMU-1 11             
1 58645U 23205A   26191.57703780  .00003436  00000+0  13143-3 0  9996
2 58645  97.3445 212.7692 0006775 282.9307  77.1175 15.27234374141098
TIANMU-1 12             
1 58646U 23205B   26191.61445250  .00003693  00000+0  14180-3 0  9994
2 58646  97.3435 212.5548 0005526 255.4626 104.6000 15.27065317141089
TIANMU-1 13             
1 58647U 23205C   26191.58234446  .00003625  00000+0  13927-3 0  9997
2 58647  97.3462 212.8015 0005376 232.0574 128.0180 15.27057666141074
TIANMU-1 14             
1 58648U 23205D   26191.56686962  .00003552  00000+0  13635-3 0  9995
2 58648  97.3398 211.9497 0006039 240.1215 119.9425 15.27101667141078
TIANMU-1 19             
1 58660U 23208A   26191.60868089  .00005569  00000+0  18321-3 0  9996
2 58660  97.4516 308.0357 0004137 216.0912 144.0051 15.31930369140911
