OBJECT_NAME,OBJECT_ID,EPOCH,MEAN_MOTION,ECCENTRICITY,INCLINATION,RA_OF_ASC_NODE,ARG_OF_PERICENTER,MEAN_ANOMALY,EPHEMERIS_TYPE,CLASSIFICATION_TYPE,NORAD_CAT_ID,ELEMENT_SET_NO,REV_AT_EPOCH,BSTAR,MEAN_MOTION_DOT,MEAN_MOTION_DDOT
FENGYUN 3D,2017-072A,2026-07-10T14:46:12.733824,14.19744339,.00017472,99.0139,166.4621,24.2459,335.8799,0,U,43010,999,44831,.80919374E-4,.125E-5,0
NOAA 20 (JPSS-1),2017-073A,2026-07-10T13:03:00.097632,14.19515883,.00012017,98.7774,130.7993,128.9213,231.2071,0,U,43013,999,44778,.24648882E-4,.8E-7,0
GOES 17,2018-022A,2026-07-10T13:10:46.630848,1.00270932,.00005976,0.9939,85.3295,79.1020,232.2385,0,U,43226,999,3065,0,-.174E-5,0
SENTINEL-3B,2018-039A,2026-07-09T10:06:02.564928,14.26741005,.00010167,98.6239,257.6331,120.0757,240.0524,0,U,43437,999,42729,.40006667E-4,.53E-6,0
FENGYUN 2H,2018-050A,2026-07-10T13:58:53.261760,1.00267747,.00021986,3.0876,78.8057,129.9085,8.7125,0,U,43491,999,2967,0,-.121E-5,0
METOP-C,2018-087A,2026-07-10T13:51:26.312832,14.21518262,.00022334,98.6632,250.7521,99.5328,260.6102,0,U,43689,999,39815,.40387769E-4,.45E-6,0
GEO-KOMPSAT-2A,2018-100A,2026-07-10T12:30:15.020352,1.00272146,.00019953,0.0255,128.1121,332.7281,143.4297,0,U,43823,999,2786,0,-.334E-5,0
METEOR-M2 2,2019-038A,2026-07-10T13:35:32.317728,14.24372266,.00010103,98.9159,179.1975,12.7323,347.3880,0,U,44387,999,36462,.59030401E-4,.91E-6,0
ARKTIKA-M 1,2021-016A,2026-07-07T10:17:34.884672,2.00614486,.72950864,63.2524,54.6812,270.0380,14.5466,0,U,47719,999,3919,0,-.257E-5,0
FENGYUN 3E,2021-062A,2026-07-10T14:19:15.021696,14.19905413,.0002485,98.7503,194.7436,47.0199,313.1186,0,U,49008,999,25990,-.74856743E-4,-.203E-5,0
GOES 18,2022-021A,2026-07-10T12:34:38.504064,1.00272174,.00005938,0.0186,203.2178,346.3182,150.5643,0,U,51850,999,682,0,.107E-5,0
NOAA 21 (JPSS-2),2022-150A,2026-07-10T13:49:37.099776,14.19540595,.0002722,98.7061,129.9725,112.5324,247.6141,0,U,54234,999,18986,.28650566E-4,.17E-6,0
METEOSAT-12 (MTG-I1),2022-170C,2026-07-10T07:59:38.527584,1.00266807,.00038271,0.7198,18.8197,83.1984,305.9022,0,U,54743,999,1321,0,.2E-7,0
TIANMU-1 03,2023-039A,2026-07-10T14:03:16.874208,15.47956015,.00029734,97.5240,6.4835,38.6448,321.5014,0,U,55973,999,18445,.20108245E-3,.10398E-3,0
TIANMU-1 04,2023-039B,2026-07-10T13:34:52.826880,15.48576065,.00034816,97.5174,5.6189,30.2093,329.9357,0,U,55974,999,18446,.20673074E-3,.10928E-3,0
TIANMU-1 05,2023-039C,2026-07-10T13:37:14.106432,15.47878431,.00033727,97.5220,6.0711,58.1228,302.0350,0,U,55975,999,18443,.20471933E-3,.1056E-3,0
TIANMU-1 06,2023-039D,2026-07-10T15:14:57.599232,15.48475106,.00034719,97.5226,6.8013,50.6851,309.4706,0,U,55976,999,18447,.20780895E-3,.10947E-3,0
FENGYUN 3G,2023-055A,2026-07-10T14:08:39.649056,15.53651035,.00071551,49.9913,225.3462,35.2908,324.8532,0,U,56232,999,18364,.23595995E-3,.14941E-3,0
METEOR-M2 3,2023-091A,2026-07-10T15:16:18.350400,14.24048703,.00051493,98.6070,246.1334,100.5205,259.6555,0,U,57166,999,15785,.11015117E-4,-.18E-6,0
TIANMU-1 07,2023-101A,2026-07-10T13:55:34.885632,15.30080952,.00040082,97.2585,241.7131,74.2945,285.8737,0,U,57399,999,16522,.13955626E-3,.3989E-4,0
TIANMU-1 08,2023-101B,2026-07-10T14:41:37.674240,15.30085392,.00049995,97.2574,241.5116,58.4928,301.6801,0,U,57400,999,16522,.14407351E-3,.4121E-4,0
TIANMU-1 09,2023-101C,2026-07-10T14:16:58.647936,15.30124904,.00046173,97.2532,240.8987,75.0036,285.1716,0,U,57401,999,16522,.14567101E-3,.4173E-4,0
TIANMU-1 10,2023-101D,2026-07-10T13:30:59.628960,15.30098176,.00059893,97.2612,241.9420,66.5686,293.6185,0,U,57402,999,16521,.14712329E-3,.4212E-4,0
FENGYUN 3F,2023-111A,2026-07-10T13:55:16.972320,14.19942955,.0001369,98.6827,261.1519,78.3951,281.7379,0,U,57490,999,15218,.24627976E-4,.9E-7,0
ARKTIKA-M 2,2023-198A,2026-07-10T04:34:00.829632,2.00608562,.69090765,63.2187,151.7920,267.3544,18.7501,0,U,58584,999,1878,0,.186E-5,0
TIANMU-1 11,2023-205A,2026-07-10T13:50:56.065920,15.27234374,.00067757,97.3445,212.7692,282.9307,77.1175,0,U,58645,999,14109,.13143403E-3,.3436E-4,0
TIANMU-1 12,2023-205B,2026-07-10T14:44:48.696000,15.27065317,.00055268,97.3435,212.5548,255.4626,104.6000,0,U,58646,999,14108,.14179911E-3,.3693E-4,0
TIANMU-1 13,2023-205C,2026-07-10T13:58:34.561344,15.27057666,.00053769,97.3462,212.8015,232.0574,128.0180,0,U,58647,999,14107,.13927031E-3,.3625E-4,0
TIANMU-1 14,2023-205D,2026-07-10T13:36:17.535168,15.27101667,.00060397,97.3398,211.9497,240.1215,119.9425,0,U,58648,999,14107,.13634631E-3,.3552E-4,0
TIANMU-1 19,2023-208A,2026-07-10T14:36:30.028896,15.31930369,.00041376,97.4516,308.0357,216.0912,144.0051,0,U,58660,999,14091,.18320705E-3,.5569E-4,0
